{"type":"FeatureCollection","features":[{"type":"Feature","properties":{"nom":"Albert"},"geometry":{"type":"Polygon","coordinates":[[[31.396,2.28],[31.4,1.896],[31.268,1.688],[31.166,1.605],[30.969,1.527],[30.594,1.041],[30.507,1.041],[30.495,1.23],[30.4,1.256],[30.387,1.297],[30.479,1.467],[30.868,1.859],[31.179,2.073],[31.431,2.388],[31.475,2.401],[31.396,2.28]]]}},{"type":"Feature","properties":{"nom":"Tchad"},"geometry":{"type":"Polygon","coordinates":[[[14.743,13.062],[14.661,12.982],[14.516,12.98],[14.347,12.877],[14.275,12.903],[14.259,13.004],[14.342,13.162],[14.496,13.239],[14.653,13.208],[14.743,13.062]]]}},{"type":"Feature","properties":{"nom":"Malawi"},"geometry":{"type":"Polygon","coordinates":[[[35.284,-14.365],[35.236,-14.401],[35.048,-14.177],[34.958,-14.148],[34.93,-14.042],[34.881,-14.012],[34.849,-14.035],[34.819,-14.217],[34.77,-14.254],[34.707,-14.262],[34.6,-14.159],[34.538,-13.985],[34.622,-13.751],[34.605,-13.669],[34.547,-13.6],[34.41,-13.53],[34.321,-13.379],[34.33,-12.945],[34.263,-12.73],[34.196,-12.642],[34.18,-12.425],[34.074,-12.353],[34.033,-12.209],[34.059,-12.049],[34.323,-11.653],[34.23,-11.228],[34.245,-11.099],[34.19,-10.59],[34.26,-10.448],[34.204,-10.319],[34.016,-10.098],[33.907,-9.802],[33.959,-9.627],[33.95,-9.565],[33.996,-9.495],[34.089,-9.538],[34.321,-9.732],[34.524,-10.03],[34.58,-10.32],[34.584,-10.525],[34.662,-10.71],[34.608,-11.08],[34.774,-11.342],[34.851,-11.352],[34.937,-11.463],[34.959,-11.577],[34.934,-11.871],[34.857,-12.048],[34.7,-12.2],[34.694,-12.422],[34.791,-12.643],[34.808,-12.767],[34.77,-12.963],[34.8,-13.044],[34.812,-13.332],[34.862,-13.46],[34.868,-13.701],[35.056,-13.743],[35.284,-14.365]],[[34.642,-12.014],[34.591,-11.971],[34.542,-12.019],[34.58,-12.066],[34.622,-12.067],[34.642,-12.014]],[[34.684,-12.119],[34.756,-12.059],[34.715,-12.003],[34.667,-12.048],[34.684,-12.119]]]}},{"type":"Feature","properties":{"nom":"Victoria"},"geometry":{"type":"Polygon","coordinates":[[[34.813,-0.276],[34.703,-0.325],[34.478,-0.353],[34.456,-0.495],[34.217,-0.442],[34.079,-0.579],[34.068,-0.725],[34.163,-0.879],[34.121,-0.975],[34.07,-0.997],[33.903,-1.247],[33.942,-1.34],[33.829,-1.363],[33.822,-1.425],[33.921,-1.514],[33.686,-1.488],[33.646,-1.571],[33.675,-1.638],[33.602,-1.691],[33.593,-1.761],[33.489,-1.822],[33.366,-1.83],[33.298,-1.922],[33.45,-1.915],[33.524,-1.996],[33.3,-2.023],[33.233,-2.072],[33.226,-2.096],[33.276,-2.124],[33.517,-2.162],[33.794,-2.123],[33.809,-2.192],[33.51,-2.43],[33.432,-2.46],[33.437,-2.522],[33.21,-2.489],[33.067,-2.41],[32.945,-2.421],[32.892,-2.484],[32.884,-2.664],[32.963,-2.849],[32.892,-2.862],[32.76,-2.985],[32.764,-2.867],[32.862,-2.757],[32.814,-2.647],[32.811,-2.515],[32.703,-2.502],[32.644,-2.439],[32.548,-2.508],[32.521,-2.454],[32.357,-2.394],[32.32,-2.304],[32.24,-2.283],[32.174,-2.366],[32.096,-2.394],[32.15,-2.525],[32.031,-2.516],[31.986,-2.547],[31.969,-2.608],[32.003,-2.757],[31.918,-2.674],[31.848,-2.705],[31.801,-2.791],[31.782,-2.693],[31.815,-2.621],[31.735,-2.53],[31.781,-2.44],[31.675,-2.277],[31.664,-1.932],[31.763,-1.492],[31.826,-1.359],[31.865,-1.092],[31.849,-1.017],[31.783,-1.01],[31.723,-0.79],[31.867,-0.481],[31.994,-0.321],[32.001,-0.255],[31.933,-0.158],[31.95,-0.132],[32.209,0.009],[32.351,0.015],[32.413,0.089],[32.449,0.056],[32.533,0.07],[32.647,0.253],[32.711,0.179],[32.671,0.117],[32.779,0.119],[32.879,0.169],[32.915,0.096],[32.958,0.108],[33.07,0.193],[33.076,0.239],[33.137,0.252],[33.201,0.388],[33.187,0.428],[33.364,0.472],[33.332,0.369],[33.484,0.315],[33.441,0.271],[33.483,0.218],[33.58,0.222],[33.68,0.316],[33.713,0.308],[33.745,0.208],[33.861,0.185],[33.975,0.213],[34.003,-0.024],[34.059,-0.081],[34.125,-0.091],[34.117,-0.163],[34.285,-0.35],[34.334,-0.337],[34.42,-0.196],[34.718,-0.092],[34.813,-0.276]],[[32.038,-2.351],[32.045,-2.243],[31.9,-2.284],[31.818,-2.192],[31.783,-2.321],[31.843,-2.381],[31.848,-2.454],[31.9,-2.443],[31.917,-2.372],[32.038,-2.351]],[[32.319,-0.338],[32.269,-0.29],[32.194,-0.332],[32.182,-0.235],[32.065,-0.254],[32.104,-0.322],[32.208,-0.363],[32.132,-0.525],[32.272,-0.472],[32.319,-0.338]],[[33.183,-2.116],[33.097,-1.965],[32.972,-1.973],[32.949,-1.902],[32.83,-1.938],[32.851,-2.061],[32.899,-2.085],[33.125,-2.158],[33.175,-2.159],[33.183,-2.116]],[[33.388,0.272],[33.318,0.298],[33.224,0.277],[33.218,0.19],[33.184,0.15],[33.264,0.144],[33.339,0.08],[33.317,0.184],[33.372,0.216],[33.388,0.272]]]}},{"type":"Feature","properties":{"nom":"Tana"},"geometry":{"type":"Polygon","coordinates":[[[37.253,11.82],[37.169,11.817],[37.113,11.855],[37.058,11.834],[37.002,11.907],[37.028,12.165],[37.096,12.266],[37.269,12.224],[37.333,12.272],[37.46,12.303],[37.555,12.223],[37.592,12.117],[37.55,11.942],[37.387,11.632],[37.301,11.668],[37.322,11.709],[37.253,11.82]]]}},{"type":"Feature","properties":{"nom":null},"geometry":{"type":"Polygon","coordinates":[[[35.324,-14.619],[35.249,-14.739],[35.197,-14.682],[35.208,-14.531],[35.24,-14.51],[35.324,-14.619]]]}},{"type":"Feature","properties":{"nom":"Turkana"},"geometry":{"type":"Polygon","coordinates":[[[36.633,2.425],[36.571,2.405],[36.535,2.448],[36.424,2.734],[36.331,2.874],[36.154,3.038],[36.113,3.167],[35.966,3.368],[35.872,3.598],[35.847,3.775],[35.95,4.553],[36.045,4.539],[36.132,4.653],[36.174,4.632],[36.197,4.431],[36.221,3.473],[36.311,3.207],[36.427,3.011],[36.652,2.858],[36.697,2.727],[36.685,2.538],[36.633,2.425]]]}},{"type":"Feature","properties":{"nom":"Moero"},"geometry":{"type":"Polygon","coordinates":[[[29.128,-8.662],[29.021,-8.922],[28.696,-9.396],[28.521,-9.404],[28.51,-9.485],[28.377,-9.503],[28.333,-9.45],[28.324,-9.364],[28.367,-9.101],[28.867,-8.513],[28.954,-8.521],[29.078,-8.6],[29.128,-8.662]]]}},{"type":"Feature","properties":{"nom":"du Thartar"},"geometry":{"type":"Polygon","coordinates":[[[43.261,33.728],[43.106,33.915],[43.074,34.113],[43.066,34.258],[43.116,34.329],[43.239,34.141],[43.467,33.95],[43.493,33.888],[43.478,33.729],[43.42,33.706],[43.261,33.728]]]}},{"type":"Feature","properties":{"nom":"Lake Milh"},"geometry":{"type":"Polygon","coordinates":[[[43.863,32.612],[43.793,32.535],[43.739,32.531],[43.482,32.642],[43.423,32.81],[43.475,32.919],[43.469,33.011],[43.508,33.06],[43.55,33.079],[43.72,32.808],[43.878,32.688],[43.863,32.612]]]}},{"type":"Feature","properties":{"nom":"mer Morte"},"geometry":{"type":"Polygon","coordinates":[[[35.585,31.724],[35.545,31.359],[35.521,31.327],[35.423,31.325],[35.421,31.619],[35.463,31.71],[35.559,31.766],[35.585,31.724]]]}},{"type":"Feature","properties":{"nom":"Kainji"},"geometry":{"type":"Polygon","coordinates":[[[4.679,10.344],[4.598,10.196],[4.659,9.885],[4.594,9.867],[4.537,10.028],[4.474,10.07],[4.506,10.174],[4.464,10.196],[4.485,10.229],[4.465,10.306],[4.4,10.375],[4.459,10.46],[4.492,10.644],[4.68,10.585],[4.65,10.517],[4.679,10.344]]]}},{"type":"Feature","properties":{"nom":"Ourmia"},"geometry":{"type":"Polygon","coordinates":[[[45.747,37.701],[45.755,37.578],[45.858,37.426],[45.831,37.341],[45.663,37.288],[45.536,37.135],[45.449,37.149],[45.365,37.227],[45.292,37.438],[45.234,37.764],[45.087,37.885],[45.08,37.988],[45.467,38.0],[45.436,37.806],[45.483,37.754],[45.666,37.742],[45.747,37.701]]]}},{"type":"Feature","properties":{"nom":"Bangwelo"},"geometry":{"type":"Polygon","coordinates":[[[30.019,-11.014],[29.917,-11.301],[29.837,-11.38],[29.669,-11.415],[29.588,-11.394],[29.55,-11.248],[29.496,-11.195],[29.565,-11.157],[29.741,-10.931],[29.927,-10.878],[30.0,-10.938],[30.019,-11.014]]]}},{"type":"Feature","properties":{"nom":"Kivu"},"geometry":{"type":"Polygon","coordinates":[[[29.198,-1.644],[29.358,-2.016],[29.338,-2.058],[29.077,-2.345],[28.995,-2.36],[28.85,-2.448],[28.857,-2.371],[28.917,-2.288],[28.872,-2.187],[28.916,-2.082],[28.909,-2.008],[29.033,-1.647],[29.071,-1.605],[29.198,-1.644]]]}},{"type":"Feature","properties":{"nom":"Édouard"},"geometry":{"type":"Polygon","coordinates":[[[29.366,-0.64],[29.327,-0.53],[29.496,-0.18],[29.644,-0.12],[29.783,-0.121],[29.887,-0.172],[29.868,-0.303],[29.642,-0.507],[29.51,-0.612],[29.366,-0.64]]]}},{"type":"Feature","properties":{"nom":"Rukwa"},"geometry":{"type":"Polygon","coordinates":[[[32.53,-8.07],[32.521,-8.09],[32.171,-7.963],[31.96,-7.986],[31.823,-7.783],[31.8,-7.653],[31.897,-7.585],[32.026,-7.633],[32.53,-8.07]]]}},{"type":"Feature","properties":{"nom":"Manyara"},"geometry":{"type":"Polygon","coordinates":[[[35.762,-3.553],[35.822,-3.432],[35.869,-3.424],[35.838,-3.701],[35.775,-3.757],[35.742,-3.707],[35.762,-3.553]]]}},{"type":"Feature","properties":{"nom":"Abaya"},"geometry":{"type":"Polygon","coordinates":[[[38.017,6.589],[38.143,6.56],[38.107,6.449],[37.944,6.202],[37.843,6.073],[37.701,6.015],[37.709,6.088],[37.887,6.263],[37.869,6.491],[38.017,6.589]]]}},{"type":"Feature","properties":{"nom":"Tumba"},"geometry":{"type":"Polygon","coordinates":[[[18.014,-0.931],[17.917,-0.816],[17.901,-0.736],[17.811,-0.672],[18.045,-0.657],[18.114,-0.708],[18.129,-0.981],[18.014,-0.931]]]}},{"type":"Feature","properties":{"nom":"Al-hammar"},"geometry":{"type":"Polygon","coordinates":[[[47.573,30.664],[47.104,30.74],[46.822,30.725],[46.792,30.803],[46.712,30.867],[46.748,30.903],[46.861,30.917],[47.29,30.772],[47.5,30.809],[47.608,30.689],[47.573,30.664]]]}},{"type":"Feature","properties":{"nom":"Assal"},"geometry":{"type":"Polygon","coordinates":[[[42.441,11.64],[42.399,11.645],[42.411,11.712],[42.447,11.677],[42.441,11.64]]]}},{"type":"Feature","properties":{"nom":"Kariba"},"geometry":{"type":"Polygon","coordinates":[[[28.988,-16.611],[28.931,-16.689],[28.867,-16.676],[28.829,-16.77],[28.762,-16.808],[28.697,-16.774],[28.69,-16.71],[28.655,-16.7],[28.509,-16.759],[28.461,-16.866],[28.341,-16.788],[28.117,-16.861],[28.076,-17.046],[27.959,-17.04],[27.841,-17.146],[27.705,-17.207],[27.576,-17.451],[27.455,-17.533],[27.453,-17.568],[27.353,-17.602],[27.077,-17.956],[27.021,-17.958],[27.094,-17.848],[27.107,-17.771],[27.371,-17.504],[27.344,-17.46],[27.431,-17.3],[27.609,-17.073],[27.688,-17.066],[27.705,-16.94],[27.831,-16.901],[27.794,-16.819],[27.899,-16.769],[27.975,-16.819],[28.042,-16.818],[28.168,-16.707],[28.175,-16.655],[28.283,-16.601],[28.29,-16.543],[28.393,-16.586],[28.623,-16.495],[28.943,-16.576],[28.988,-16.611]]]}},{"type":"Feature","properties":{"nom":"Kyoga"},"geometry":{"type":"Polygon","coordinates":[[[33.487,1.643],[33.227,1.585],[33.126,1.503],[33.258,1.47],[33.197,1.399],[33.243,1.386],[33.317,1.42],[33.326,1.356],[33.26,1.223],[32.899,1.43],[32.864,1.419],[32.893,1.311],[32.786,1.402],[32.742,1.34],[32.58,1.411],[32.537,1.497],[32.545,1.522],[32.611,1.514],[32.801,1.581],[32.811,1.549],[32.999,1.547],[33.101,1.634],[33.129,1.616],[33.237,1.67],[33.31,1.656],[33.414,1.731],[33.446,1.728],[33.487,1.643]]]}},{"type":"Feature","properties":{"nom":"mer Morte"},"geometry":{"type":"Polygon","coordinates":[[[35.517,31.154],[35.498,31.105],[35.417,31.104],[35.382,31.216],[35.446,31.232],[35.517,31.154]]]}},{"type":"Feature","properties":{"nom":"Tibériade"},"geometry":{"type":"Polygon","coordinates":[[[35.616,32.749],[35.577,32.72],[35.534,32.803],[35.539,32.856],[35.599,32.9],[35.636,32.834],[35.616,32.749]]]}},{"type":"Feature","properties":{"nom":"Volta"},"geometry":{"type":"Polygon","coordinates":[[[0.254,6.673],[0.317,6.738],[0.276,6.648],[0.152,6.611],[0.138,6.366],[0.103,6.338],[0.073,6.404],[-0.011,6.379],[-0.099,6.49],[-0.634,6.753],[-0.674,6.802],[-0.684,6.834],[-0.58,6.785],[-0.551,6.811],[-0.467,6.723],[-0.419,6.731],[-0.393,6.828],[-0.335,6.716],[-0.194,6.741],[-0.144,6.648],[-0.057,6.63],[-0.017,6.733],[-0.066,6.825],[0.112,6.897],[0.042,6.946],[0.123,6.983],[0.088,7.023],[0.085,7.147],[0.007,7.209],[0.099,7.193],[0.184,7.287],[0.102,7.343],[0.046,7.478],[-0.063,7.508],[-0.066,7.444],[-0.157,7.51],[-0.242,7.517],[-0.208,7.546],[0.012,7.543],[-0.064,7.641],[-0.242,7.639],[-0.654,7.551],[-0.1,7.755],[-0.157,7.779],[-0.192,7.955],[-0.315,8.04],[-0.417,7.972],[-0.379,8.048],[-0.446,8.091],[-0.527,8.062],[-0.543,8.154],[-0.624,8.085],[-0.756,8.102],[-0.748,8.135],[-0.6,8.173],[-0.795,8.315],[-0.784,8.366],[-0.999,8.63],[-1.128,8.632],[-1.153,8.551],[-1.219,8.658],[-1.405,8.739],[-1.545,8.664],[-1.715,8.63],[-1.376,8.805],[-1.269,8.726],[-1.062,8.722],[-1.134,8.813],[-1.174,8.945],[-1.152,9.117],[-1.106,8.897],[-1.026,8.844],[-0.873,8.586],[-0.817,8.6],[-0.823,8.707],[-0.791,8.761],[-0.806,8.689],[-0.705,8.643],[-0.805,8.52],[-0.782,8.469],[-0.485,8.209],[-0.286,8.253],[-0.202,8.213],[-0.193,8.186],[-0.33,8.158],[-0.128,8.011],[-0.024,7.793],[0.055,7.792],[0.07,7.821],[0.07,8.081],[0.17,8.086],[0.105,8.242],[0.217,8.363],[0.092,8.403],[0.085,8.548],[0.198,8.738],[0.103,8.434],[0.294,8.334],[0.214,8.314],[0.184,8.206],[0.267,8.094],[0.161,8.06],[0.108,7.939],[0.168,7.863],[0.258,7.905],[0.237,7.834],[0.278,7.762],[0.282,7.575],[0.24,7.578],[0.229,7.536],[0.25,7.491],[0.32,7.542],[0.272,7.234],[0.271,7.138],[0.305,7.099],[0.24,6.896],[0.254,6.673]],[[0.181,6.726],[0.115,6.796],[0.062,6.808],[0.017,6.779],[0.011,6.718],[0.09,6.659],[0.181,6.726]]]}},{"type":"Feature","properties":{"nom":"Tanganyika"},"geometry":{"type":"Polygon","coordinates":[[[30.799,-8.566],[30.672,-8.503],[30.534,-8.579],[30.568,-8.514],[30.464,-8.498],[30.461,-8.382],[30.573,-8.262],[30.567,-8.115],[30.396,-7.928],[30.277,-7.848],[30.147,-7.299],[30.013,-7.145],[29.752,-6.995],[29.537,-6.754],[29.48,-6.633],[29.476,-6.515],[29.424,-6.491],[29.311,-6.191],[29.193,-6.038],[29.19,-5.915],[29.33,-5.799],[29.333,-5.662],[29.372,-5.616],[29.157,-5.236],[29.102,-5.054],[29.124,-4.586],[29.169,-4.504],[29.203,-4.511],[29.254,-4.101],[29.228,-4.071],[29.145,-4.335],[29.063,-4.317],[29.099,-4.206],[29.142,-3.408],[29.196,-3.338],[29.298,-3.355],[29.332,-3.39],[29.364,-3.856],[29.653,-4.42],[29.6,-4.896],[29.792,-5.041],[29.816,-5.152],[29.758,-5.467],[29.865,-5.63],[29.951,-5.861],[29.916,-5.938],[29.748,-6.03],[29.722,-6.244],[29.95,-6.498],[30.094,-6.457],[30.166,-6.483],[30.528,-6.923],[30.561,-7.065],[30.512,-7.116],[30.599,-7.376],[30.604,-7.542],[30.725,-7.701],[30.957,-8.121],[30.964,-8.238],[31.143,-8.451],[31.198,-8.652],[31.189,-8.73],[31.133,-8.725],[31.084,-8.776],[31.022,-8.787],[30.799,-8.566]]]}},{"type":"Feature","properties":{"nom":"Nasser"},"geometry":{"type":"Polygon","coordinates":[[[32.234,22.674],[32.056,22.665],[31.962,22.573],[31.936,22.481],[31.826,22.351],[31.714,22.351],[31.645,22.312],[31.625,22.242],[31.487,22.159],[31.412,22.057],[31.319,21.812],[31.124,21.612],[31.091,21.609],[31.45,22.21],[31.704,22.453],[31.785,22.483],[31.676,22.626],[31.824,22.565],[31.911,22.661],[32.132,22.781],[32.222,22.769],[32.337,22.691],[32.413,22.694],[32.501,22.758],[32.739,23.229],[32.819,23.278],[32.856,23.342],[32.841,23.483],[32.743,23.516],[32.661,23.472],[32.599,23.496],[32.707,23.57],[32.624,23.587],[32.655,23.633],[32.798,23.584],[32.834,23.619],[32.873,23.792],[32.823,23.91],[32.879,23.988],[32.933,23.941],[32.986,23.695],[32.981,23.655],[32.909,23.61],[33.005,23.509],[32.922,23.485],[32.99,23.371],[33.007,23.237],[32.921,23.249],[32.911,23.161],[32.865,23.156],[32.855,23.117],[32.99,22.955],[32.972,22.935],[32.785,23.039],[32.744,23.033],[32.705,22.947],[32.618,22.896],[32.586,22.783],[32.297,22.531],[32.248,22.547],[32.296,22.612],[32.234,22.674]]]}},{"type":"Feature","properties":{"nom":"Volta"},"geometry":{"type":"Polygon","coordinates":[[[0.254,6.673],[0.317,6.738],[0.276,6.648],[0.152,6.611],[0.138,6.366],[0.103,6.338],[0.073,6.404],[-0.011,6.379],[-0.099,6.49],[-0.634,6.753],[-0.674,6.802],[-0.684,6.834],[-0.58,6.785],[-0.551,6.811],[-0.467,6.723],[-0.419,6.731],[-0.393,6.828],[-0.335,6.716],[-0.194,6.741],[-0.144,6.648],[-0.057,6.63],[-0.017,6.733],[-0.066,6.825],[0.112,6.897],[0.042,6.946],[0.123,6.983],[0.088,7.023],[0.085,7.147],[0.007,7.209],[0.099,7.193],[0.184,7.287],[0.102,7.343],[0.046,7.478],[-0.063,7.508],[-0.066,7.444],[-0.157,7.51],[-0.242,7.517],[-0.208,7.546],[0.012,7.543],[-0.064,7.641],[-0.242,7.639],[-0.654,7.551],[-0.1,7.755],[-0.157,7.779],[-0.192,7.955],[-0.315,8.04],[-0.417,7.972],[-0.379,8.048],[-0.446,8.091],[-0.527,8.062],[-0.543,8.154],[-0.624,8.085],[-0.756,8.102],[-0.748,8.135],[-0.6,8.173],[-0.795,8.315],[-0.784,8.366],[-0.999,8.63],[-1.128,8.632],[-1.153,8.551],[-1.219,8.658],[-1.405,8.739],[-1.545,8.664],[-1.715,8.63],[-1.376,8.805],[-1.269,8.726],[-1.062,8.722],[-1.134,8.813],[-1.174,8.945],[-1.152,9.117],[-1.106,8.897],[-1.026,8.844],[-0.873,8.586],[-0.817,8.6],[-0.823,8.707],[-0.791,8.761],[-0.806,8.689],[-0.705,8.643],[-0.805,8.52],[-0.782,8.469],[-0.485,8.209],[-0.286,8.253],[-0.202,8.213],[-0.193,8.186],[-0.33,8.158],[-0.128,8.011],[-0.024,7.793],[0.055,7.792],[0.07,7.821],[0.07,8.081],[0.17,8.086],[0.105,8.242],[0.217,8.363],[0.092,8.403],[0.085,8.548],[0.198,8.738],[0.103,8.434],[0.294,8.334],[0.214,8.314],[0.184,8.206],[0.267,8.094],[0.161,8.06],[0.108,7.939],[0.168,7.863],[0.258,7.905],[0.237,7.834],[0.278,7.762],[0.282,7.575],[0.24,7.578],[0.229,7.536],[0.25,7.491],[0.32,7.542],[0.272,7.234],[0.271,7.138],[0.305,7.099],[0.24,6.896],[0.254,6.673]],[[0.181,6.726],[0.115,6.796],[0.062,6.808],[0.017,6.779],[0.011,6.718],[0.09,6.659],[0.181,6.726]]]}},{"type":"Feature","properties":{"nom":"Habbaniya"},"geometry":{"type":"Polygon","coordinates":[[[43.566,33.219],[43.434,33.199],[43.402,33.257],[43.304,33.309],[43.309,33.349],[43.382,33.435],[43.477,33.338],[43.554,33.348],[43.595,33.306],[43.566,33.219]]]}}]}