{"type":"FeatureCollection","features":[{"type":"Feature","properties":{"nom":"Abay","rang":3},"geometry":{"type":"LineString","coordinates":[[37.113,11.855],[37.15,11.894],[37.264,11.903],[37.32,11.834],[37.387,11.632]]}},{"type":"Feature","properties":{"nom":"Al Furat","rang":3},"geometry":{"type":"LineString","coordinates":[[38.561,35.863],[38.246,35.951],[38.079,36.074],[38.066,36.114],[38.188,36.284],[38.184,36.342]]}},{"type":"Feature","properties":{"nom":"Albert Nile","rang":1},"geometry":{"type":"LineString","coordinates":[[31.367,2.193],[31.383,2.306],[31.475,2.4]]}},{"type":"Feature","properties":{"nom":"Atbara","rang":6},"geometry":{"type":"LineString","coordinates":[[35.924,14.935],[35.895,14.62]]}},{"type":"Feature","properties":{"nom":"El Bahr el Azraq","rang":3},"geometry":{"type":"LineString","coordinates":[[34.38,11.783],[34.409,11.639],[34.509,11.517],[34.778,11.296]]}},{"type":"Feature","properties":{"nom":"Jordan","rang":6},"geometry":{"type":"MultiLineString","coordinates":[[[35.423,31.325],[35.499,31.672],[35.559,31.766]],[[35.599,32.9],[35.577,32.72]]]}},{"type":"Feature","properties":{"nom":"Mouhoun","rang":5},"geometry":{"type":"LineString","coordinates":[[-1.713,8.631],[-1.376,8.762],[-1.177,8.672],[-0.976,8.662]]}},{"type":"Feature","properties":{"nom":"Nakanbé","rang":6},"geometry":{"type":"LineString","coordinates":[[-0.974,8.661],[-1.111,8.856],[-1.155,8.97],[-1.152,9.117]]}},{"type":"Feature","properties":{"nom":"Niger","rang":3},"geometry":{"type":"MultiLineString","coordinates":[[[4.626,9.865],[4.529,10.239],[4.537,10.425],[4.657,10.609]],[[-3.98,15.281],[-4.166,15.365],[-4.304,15.507]]]}},{"type":"Feature","properties":{"nom":"Nile","rang":1},"geometry":{"type":"LineString","coordinates":[[32.879,23.988],[32.909,23.808],[32.872,23.591],[32.914,23.332],[32.855,23.208],[32.587,22.876],[32.576,22.806],[32.418,22.672],[32.326,22.653],[32.232,22.718],[32.137,22.733],[32.042,22.699],[31.894,22.526],[31.544,22.252],[31.4,22.093],[31.28,21.845],[31.091,21.609]]}},{"type":"Feature","properties":{"nom":"Orange","rang":6},"geometry":{"type":"MultiLineString","coordinates":[[[25.972,-30.545],[25.902,-30.548],[25.764,-30.648],[25.67,-30.664],[25.506,-30.612]],[[24.731,-29.979],[24.978,-30.263]]]}},{"type":"Feature","properties":{"nom":"Sassandra","rang":6},"geometry":{"type":"LineString","coordinates":[[-7.043,7.041],[-7.057,6.911],[-6.993,6.739],[-7.026,6.365],[-7.008,6.264]]}},{"type":"Feature","properties":{"nom":"Semliki","rang":6},"geometry":{"type":"MultiLineString","coordinates":[[[29.452,-0.607],[29.597,-0.134]],[[31.367,2.193],[30.943,1.683],[30.478,1.239]]]}},{"type":"Feature","properties":{"nom":"Shire","rang":3},"geometry":{"type":"LineString","coordinates":[[35.257,-14.504],[35.278,-14.758]]}},{"type":"Feature","properties":{"nom":"Suez Canal","rang":6},"geometry":{"type":"LineString","coordinates":[[32.561,30.181],[32.36,30.424]]}},{"type":"Feature","properties":{"nom":"Vaal","rang":4},"geometry":{"type":"MultiLineString","coordinates":[[[26.091,-27.603],[26.037,-27.699],[26.012,-27.659],[25.865,-27.594],[25.771,-27.601],[25.622,-27.668]],[[28.497,-26.991],[28.124,-26.867]]]}},{"type":"Feature","properties":{"nom":"Victoria Nile","rang":1},"geometry":{"type":"MultiLineString","coordinates":[[[33.187,0.428],[33.259,0.379],[33.232,0.294],[33.129,0.159],[32.897,-0.338],[32.744,-0.545],[32.56,-0.675],[32.292,-0.789],[31.768,-0.936]],[[32.545,1.522],[32.614,1.454],[32.835,1.405],[32.893,1.311]],[[32.241,1.666],[32.475,1.552]]]}},{"type":"Feature","properties":{"nom":"Volta","rang":5},"geometry":{"type":"LineString","coordinates":[[-0.976,8.662],[-0.726,8.362],[-0.153,7.945],[0.039,7.648],[0.155,7.394],[0.209,7.36],[0.218,7.05],[0.16,6.863],[0.194,6.688],[0.134,6.635],[0.108,6.551],[0.103,6.338]]}},{"type":"Feature","properties":{"nom":"Zambezi","rang":3},"geometry":{"type":"MultiLineString","coordinates":[[[27.021,-17.958],[27.271,-17.643],[27.438,-17.512],[27.757,-17.06],[27.932,-16.896],[28.4,-16.663],[28.761,-16.532]],[[32.708,-15.579],[32.497,-15.565],[32.184,-15.647],[31.924,-15.667],[31.329,-15.662],[31.213,-15.704],[31.065,-15.704],[30.796,-15.642]]]}},{"type":"Feature","properties":{"nom":"Abay","rang":3},"geometry":{"type":"LineString","coordinates":[[37.179,11.036],[37.022,11.192],[36.981,11.287],[37.05,11.58],[37.167,11.7],[37.18,11.755],[37.113,11.855]]}},{"type":"Feature","properties":{"nom":"Abay","rang":3},"geometry":{"type":"LineString","coordinates":[[37.387,11.634],[37.393,11.571],[37.56,11.504],[37.812,11.288],[38.019,11.186],[38.302,11.116],[38.462,11.037],[38.5,10.949],[38.503,10.505],[38.478,10.314],[38.439,10.199],[38.376,10.136],[38.289,10.123],[37.839,9.911],[37.66,9.884],[37.49,10.021],[37.308,10.04],[37.212,10.125],[37.159,10.266],[36.677,10.36],[36.541,10.404],[36.483,10.469],[36.32,10.232],[36.207,10.155],[36.055,10.143],[35.849,10.036],[35.726,10.03],[35.72,9.998],[35.353,10.155]]}},{"type":"Feature","properties":{"nom":"Al Furat","rang":3},"geometry":{"type":"MultiLineString","coordinates":[[[38.56,35.863],[38.916,35.913],[39.227,35.881],[39.613,35.784],[39.833,35.683],[39.889,35.579],[40.004,35.473],[40.263,35.298],[40.257,35.277],[40.377,35.225],[40.475,35.016],[40.535,34.978],[40.62,34.837],[40.928,34.581],[40.946,34.458],[40.993,34.428]],[[38.026,36.836],[38.056,36.741],[38.272,36.558],[38.266,36.482],[38.184,36.342]]]}},{"type":"Feature","properties":{"nom":"Albert Nile","rang":1},"geometry":{"type":"LineString","coordinates":[[32.016,3.614],[31.935,3.528],[31.724,3.499],[31.404,2.951],[31.388,2.804],[31.421,2.77],[31.45,2.588],[31.515,2.476],[31.475,2.401]]}},{"type":"Feature","properties":{"nom":"Atbara","rang":6},"geometry":{"type":"MultiLineString","coordinates":[[[35.583,16.0],[35.352,16.313],[35.268,16.503],[34.955,16.963],[34.945,17.02],[34.421,17.319],[34.228,17.453],[34.122,17.606],[33.952,17.699]],[[35.586,16.004],[35.613,15.716],[35.95,15.045],[35.924,14.935]]]}},{"type":"Feature","properties":{"nom":"Bafing","rang":4},"geometry":{"type":"LineString","coordinates":[[-12.088,10.59],[-12.006,10.529],[-11.835,10.549],[-11.775,10.619],[-11.728,10.792],[-11.621,10.812],[-11.58,11.073],[-11.509,11.188],[-11.198,11.413],[-11.059,11.6],[-11.029,11.575],[-10.869,11.595],[-10.744,11.734],[-10.59,11.99],[-10.466,12.139],[-10.373,12.18],[-10.341,12.231],[-10.37,12.292],[-10.238,12.636],[-10.26,12.684],[-10.223,12.797],[-10.274,12.838],[-10.292,12.957],[-10.323,12.96],[-10.43,13.212],[-10.742,13.255],[-10.804,13.297],[-10.796,13.382],[-10.734,13.454],[-10.892,13.778]]}},{"type":"Feature","properties":{"nom":"Bahr el  Zeraf","rang":6},"geometry":{"type":"LineString","coordinates":[[30.536,7.767],[30.621,8.031],[30.669,8.516],[30.784,8.641],[30.829,8.758],[30.819,8.986],[30.891,9.138],[31.139,9.426]]}},{"type":"Feature","properties":{"nom":"Bahr el Jebel","rang":1},"geometry":{"type":"LineString","coordinates":[[32.016,3.614],[31.588,4.101],[31.517,4.326],[31.525,4.606],[31.635,4.817],[31.77,5.3],[31.774,5.702],[31.46,6.357],[31.148,6.83]]}},{"type":"Feature","properties":{"nom":"Bahr el Jebel","rang":1},"geometry":{"type":"LineString","coordinates":[[31.148,6.83],[30.922,6.983],[30.77,7.153],[30.547,7.521],[30.512,7.632],[30.536,7.765],[30.508,7.88],[30.366,8.124],[30.329,8.141],[30.339,8.485],[30.296,8.534],[30.289,8.704],[30.248,8.742],[30.2,8.933],[30.35,9.237],[30.333,9.311],[30.37,9.395],[30.46,9.489],[30.618,9.531],[30.846,9.52],[31.001,9.494],[31.125,9.433]]}},{"type":"Feature","properties":{"nom":"Bamingui","rang":6},"geometry":{"type":"LineString","coordinates":[[19.733,7.538],[19.627,7.56],[19.592,7.601],[19.592,7.666],[19.389,7.778],[19.331,7.886],[19.349,8.049],[19.285,8.247],[19.064,8.599],[19.109,8.656],[18.886,8.836]]}},{"type":"Feature","properties":{"nom":"Benue","rang":4},"geometry":{"type":"LineString","coordinates":[[11.924,9.491],[11.783,9.497],[11.249,9.23],[11.038,9.061],[10.941,8.901],[10.788,8.745],[10.401,8.684],[10.218,8.59],[9.977,8.327],[9.53,8.121],[9.337,7.976],[9.141,7.892],[8.807,7.788],[8.437,7.799],[7.829,7.99],[7.422,8.019],[7.156,7.968],[6.776,7.793]]}},{"type":"Feature","properties":{"nom":"Busira","rang":6},"geometry":{"type":"LineString","coordinates":[[20.754,-0.282],[20.612,-0.294],[20.297,-0.234],[20.254,-0.254],[20.156,-0.13],[20.101,-0.155],[19.937,-0.105],[19.713,-0.15],[19.577,-0.112],[19.411,-0.114],[19.214,-0.155],[19.023,-0.258],[18.951,-0.219]]}},{"type":"Feature","properties":{"nom":"Bénoué","rang":4},"geometry":{"type":"LineString","coordinates":[[13.524,7.777],[13.674,7.855],[13.717,7.922],[13.705,8.006],[13.736,8.071],[13.85,8.138],[13.998,8.312],[13.977,8.453],[13.93,8.506],[13.966,8.726],[13.925,8.833],[13.801,8.917],[13.681,9.054],[13.565,9.244],[13.475,9.314],[13.412,9.264],[13.197,9.199],[13.084,9.223],[12.821,9.375],[12.581,9.277],[12.456,9.307],[12.342,9.443],[12.195,9.506],[11.924,9.491]]}},{"type":"Feature","properties":{"nom":"Chari","rang":6},"geometry":{"type":"MultiLineString","coordinates":[[[18.886,8.836],[18.842,8.816],[18.76,8.844],[18.476,9.041],[18.231,9.319],[17.791,9.722],[17.623,9.913],[17.521,10.129],[17.372,10.296],[17.104,10.456],[17.004,10.564],[16.611,10.481],[16.017,10.773],[15.711,10.834],[15.521,10.957],[15.433,11.105],[15.386,11.344],[15.322,11.495],[15.301,11.638],[15.322,11.773],[15.283,11.895],[15.075,12.085]],[[15.075,12.085],[14.95,12.043],[14.843,12.073],[14.584,12.219],[14.519,12.298],[14.197,12.384],[14.176,12.471]],[[15.075,12.085],[14.957,12.13],[14.881,12.269],[14.847,12.502],[14.761,12.656],[14.623,12.73],[14.545,12.82],[14.516,12.98]]]}},{"type":"Feature","properties":{"nom":"Congo","rang":2},"geometry":{"type":"MultiLineString","coordinates":[[[26.441,-8.272],[26.742,-8.193],[26.838,-8.011],[26.973,-7.9],[26.929,-7.804],[26.839,-7.72],[26.865,-7.529],[27.009,-7.229],[27.049,-6.991],[26.984,-6.815],[26.97,-6.422],[26.906,-6.173],[26.9,-5.818],[26.93,-5.61]],[[24.292,0.782],[24.178,0.924],[23.734,1.123],[23.461,1.342],[23.184,1.679],[22.968,1.873],[22.735,1.95],[22.557,2.101],[22.396,2.161],[21.721,2.158],[21.304,2.041],[20.418,1.972],[19.902,1.864],[19.143,1.574],[18.714,1.223],[18.436,0.944],[18.343,0.692],[18.199,0.1],[18.109,-0.124],[17.543,-0.775],[17.279,-1.0],[17.108,-1.064],[16.88,-1.226],[16.541,-1.84],[16.215,-2.178],[16.192,-2.279],[16.217,-3.03],[16.147,-3.464],[15.872,-3.934],[15.6,-4.031],[15.526,-4.088],[15.481,-4.172],[15.267,-4.308],[15.106,-4.461],[14.779,-4.846],[14.634,-4.885],[14.494,-4.852],[14.133,-4.945],[14.054,-4.991],[13.938,-5.205],[13.832,-5.301],[13.752,-5.279],[13.735,-5.303],[13.574,-5.316],[13.543,-5.359],[13.595,-5.482],[13.553,-5.576],[13.564,-5.655],[13.512,-5.743],[13.399,-5.841],[13.303,-5.882],[13.068,-5.865]]]}},{"type":"Feature","properties":{"nom":"Cubango","rang":6},"geometry":{"type":"LineString","coordinates":[[16.145,-12.654],[16.192,-12.634],[16.234,-12.66],[16.328,-12.821],[16.431,-13.436],[16.414,-13.711],[16.288,-14.196],[16.294,-14.493],[16.354,-14.573],[16.568,-14.699],[16.646,-14.821],[16.679,-15.005],[16.75,-15.166],[16.944,-15.395],[17.379,-15.555],[17.462,-15.714],[17.586,-15.853],[17.664,-16.019],[17.696,-16.212],[17.876,-16.637],[18.095,-16.953],[18.718,-17.703],[18.955,-17.804],[19.639,-17.869],[20.393,-17.887],[20.625,-17.997],[20.746,-18.02],[21.113,-17.956],[21.288,-17.963],[21.503,-18.06]]}},{"type":"Feature","properties":{"nom":"Damietta Branch","rang":1},"geometry":{"type":"LineString","coordinates":[[31.163,30.151],[31.078,30.325],[31.107,30.419],[31.21,30.508],[31.25,30.623],[31.224,30.869],[31.245,30.932],[31.42,31.128],[31.509,31.186],[31.579,31.192],[31.671,31.278],[31.839,31.526]]}},{"type":"Feature","properties":{"nom":"Dicle","rang":4},"geometry":{"type":"LineString","coordinates":[[40.26,38.0],[40.252,37.903],[40.427,37.832],[40.969,37.8],[41.155,37.757],[41.64,37.746],[41.8,37.709],[41.854,37.556],[41.841,37.481],[41.882,37.441],[41.979,37.435],[42.226,37.322],[42.313,37.23],[42.377,37.062]]}},{"type":"Feature","properties":{"nom":"El Bahr el Abyad","rang":1},"geometry":{"type":"LineString","coordinates":[[31.125,9.433],[31.346,9.366],[31.518,9.376],[31.64,9.562],[31.746,9.657],[32.036,9.834],[32.267,10.148],[32.244,10.369],[32.201,10.435],[32.108,10.471],[32.106,10.51],[32.511,10.908],[32.645,11.103],[32.642,11.24],[32.764,11.795],[32.73,12.19],[32.783,12.489],[32.767,12.939],[32.796,13.004],[32.635,13.277],[32.586,13.424],[32.587,13.638],[32.5,13.704],[32.295,14.032],[32.205,14.264],[32.172,14.465],[32.196,14.637],[32.262,14.783],[32.37,14.902],[32.44,15.13],[32.49,15.635]]}},{"type":"Feature","properties":{"nom":"El Bahr el Azraq","rang":3},"geometry":{"type":"MultiLineString","coordinates":[[[35.353,10.155],[35.242,10.517],[35.147,10.573],[35.182,10.974],[35.161,11.14],[34.993,11.249],[34.778,11.296]],[[34.38,11.783],[34.324,12.048],[34.341,12.308],[34.301,12.403],[34.157,12.534],[34.176,12.572],[34.154,12.729],[34.065,12.863],[34.0,12.902],[33.93,13.258],[33.692,13.381],[33.639,13.53],[33.593,13.573],[33.599,13.793],[33.574,13.839],[33.657,14.109],[33.566,14.344],[33.337,14.716],[33.134,15.16],[33.046,15.244],[32.842,15.339],[32.554,15.622],[32.49,15.635]]]}},{"type":"Feature","properties":{"nom":"Euphrates","rang":3},"geometry":{"type":"MultiLineString","coordinates":[[[45.463,31.305],[45.541,31.229],[46.121,31.086],[46.483,30.903],[46.886,30.959],[47.331,30.967],[47.442,31.004],[47.468,30.968]],[[40.993,34.428],[41.177,34.393],[41.276,34.443],[41.502,34.436],[41.827,34.509],[41.99,34.446],[42.122,34.302],[42.286,34.292],[42.303,34.334],[42.366,34.329],[42.332,34.231],[42.369,34.205],[42.375,34.114],[42.51,34.001],[42.563,33.87],[42.673,33.89],[42.73,33.865],[42.724,33.752],[42.767,33.671],[42.877,33.577],[43.032,33.503],[43.106,33.526],[43.288,33.455],[43.65,33.384],[43.776,33.311],[43.872,33.199],[44.029,33.16],[44.122,33.053],[44.254,32.828],[44.255,32.496],[44.387,32.072],[44.448,31.981],[44.475,31.762],[44.548,31.648],[44.77,31.479],[45.042,31.441],[45.293,31.321],[45.467,31.305]]]}},{"type":"Feature","properties":{"nom":"Firat","rang":3},"geometry":{"type":"LineString","coordinates":[[39.12,38.0],[38.978,37.887],[38.924,37.745],[38.841,37.713],[38.813,37.645],[38.701,37.631],[38.439,37.495],[38.207,37.429],[37.966,37.425],[37.92,37.384],[37.855,37.292],[37.862,37.116],[37.991,36.996],[38.026,36.836]]}},{"type":"Feature","properties":{"nom":"Genala","rang":6},"geometry":{"type":"LineString","coordinates":[[38.774,6.605],[38.724,6.541],[38.76,6.453],[38.991,6.126],[39.11,6.054],[39.388,5.969],[39.478,5.795],[39.701,5.658],[39.699,5.572],[39.736,5.526],[39.88,5.488],[40.031,5.385],[40.273,5.37],[40.443,5.4],[40.954,5.702],[41.073,5.693],[41.124,5.66],[41.394,5.09],[41.579,4.801],[41.587,4.728],[41.966,4.324]]}},{"type":"Feature","properties":{"nom":"Gharraf Canal","rang":4},"geometry":{"type":"LineString","coordinates":[[45.809,32.502],[45.901,32.431],[45.943,32.264],[45.989,32.219],[45.986,31.922],[46.046,31.883],[46.089,31.773],[46.154,31.457],[46.203,31.367],[46.371,31.202],[46.405,31.112],[46.366,30.964]]}},{"type":"Feature","properties":{"nom":"Helmand","rang":6},"geometry":{"type":"LineString","coordinates":[[61.604,31.204],[61.754,31.014],[61.817,30.802],[61.842,30.506],[62.031,30.31],[62.383,30.216],[62.685,30.192],[62.937,30.238],[63.194,30.342],[63.457,30.503],[63.663,30.57],[63.908,30.538],[64.0,30.616]]}},{"type":"Feature","properties":{"nom":"Ismailiya Canal","rang":6},"geometry":{"type":"LineString","coordinates":[[31.238,30.121],[31.282,30.129],[31.483,30.379],[31.64,30.484],[31.865,30.551],[32.303,30.593]]}},{"type":"Feature","properties":{"nom":"Jordan","rang":6},"geometry":{"type":"MultiLineString","coordinates":[[[35.424,31.325],[35.401,31.23]],[[35.577,32.72],[35.551,32.396],[35.572,32.238],[35.532,31.985],[35.559,31.766]],[[35.864,33.596],[35.696,33.431],[35.619,33.244],[35.599,32.9]]]}},{"type":"Feature","properties":{"nom":"Jubba","rang":6},"geometry":{"type":"LineString","coordinates":[[41.966,4.324],[42.029,4.291],[42.067,4.206],[42.219,4.155],[42.49,3.943],[42.542,3.795],[42.499,3.635],[42.533,3.398],[42.473,3.28],[42.487,3.188],[42.575,3.07],[42.562,3.02],[42.346,2.749],[42.36,2.677],[42.295,2.503],[42.316,2.388],[42.274,2.333],[42.145,2.345],[42.126,2.312],[42.2,2.252],[42.205,2.221],[42.157,2.188],[42.177,2.135],[42.297,1.993],[42.275,1.929],[42.426,1.617],[42.425,1.462],[42.561,1.219],[42.605,1.07],[42.595,0.929],[42.626,0.808],[42.738,0.581],[42.73,0.135],[42.585,-0.148],[42.634,-0.251]]}},{"type":"Feature","properties":{"nom":"Kadéï","rang":6},"geometry":{"type":"LineString","coordinates":[[14.617,5.865],[14.617,5.496],[14.493,5.287],[14.463,5.182],[14.485,5.111],[14.437,5.03],[14.319,4.941],[14.254,4.797],[14.243,4.598],[14.297,4.43],[14.417,4.292],[14.623,4.172],[14.827,4.23],[14.894,4.147],[15.147,4.091],[15.236,4.019],[15.451,4.046],[15.531,4.005],[15.578,3.931],[15.593,3.825],[15.651,3.756],[15.755,3.724],[16.032,3.535],[16.108,3.4],[16.11,3.246],[16.158,3.103],[16.263,2.924],[16.118,2.716],[16.095,2.599],[16.107,2.473],[16.183,2.27],[16.177,2.205],[16.08,2.107],[16.07,2.022],[16.135,1.796],[16.136,1.715],[16.098,1.654]]}},{"type":"Feature","properties":{"nom":"Kafue","rang":6},"geometry":{"type":"LineString","coordinates":[[27.157,-11.626],[27.143,-11.749],[27.183,-11.852],[27.366,-12.154],[27.568,-12.379],[27.655,-12.429],[27.706,-12.405],[27.821,-12.42],[28.002,-12.474],[28.136,-12.585],[28.223,-12.755],[28.24,-12.943],[28.185,-13.152],[28.125,-13.284],[28.06,-13.339],[27.837,-13.372],[27.76,-13.408],[27.688,-13.516],[27.626,-13.526],[27.603,-13.573],[27.616,-13.659],[27.386,-14.012],[27.41,-14.165],[27.317,-14.279],[27.12,-14.383],[26.656,-14.44],[26.5,-14.517],[26.39,-14.648],[26.292,-14.691],[26.151,-14.647],[26.131,-14.736],[26.163,-14.754],[26.178,-14.841],[25.983,-14.907],[25.947,-14.947],[26.006,-14.999],[26.015,-15.054],[25.977,-15.111],[25.967,-15.288],[25.987,-15.585],[26.048,-15.755],[26.15,-15.797],[26.285,-15.776],[26.453,-15.692],[26.748,-15.667],[26.921,-15.595],[27.08,-15.606],[27.227,-15.698],[27.373,-15.721],[27.517,-15.673],[27.643,-15.683],[27.71,-15.646],[27.894,-15.66],[28.17,-15.78],[28.482,-15.826],[28.802,-15.953],[28.973,-15.95]]}},{"type":"Feature","properties":{"nom":"Kagera","rang":1},"geometry":{"type":"LineString","coordinates":[[29.593,-2.984],[29.901,-3.091],[29.909,-3.16],[29.976,-3.184],[30.021,-3.256],[29.99,-3.315],[30.01,-3.365],[30.391,-3.088],[30.47,-2.92],[30.433,-2.875],[30.441,-2.769],[30.774,-2.463],[30.877,-2.143],[30.819,-1.967],[30.813,-1.563],[30.711,-1.397],[30.632,-1.367],[30.508,-1.208],[30.477,-1.083],[30.809,-0.995],[30.874,-1.013],[31.012,-1.143],[31.125,-1.2],[31.409,-1.239],[31.512,-1.213],[31.573,-1.157],[31.645,-1.006],[31.768,-0.936]]}},{"type":"Feature","properties":{"nom":"Kasai","rang":3},"geometry":{"type":"LineString","coordinates":[[22.237,-11.249],[22.178,-10.892],[22.203,-10.829],[22.28,-10.784],[22.307,-10.691],[22.275,-10.259],[22.198,-10.041],[22.089,-9.863],[21.857,-9.594],[21.813,-9.469],[21.905,-8.693],[21.896,-8.341],[21.801,-8.112],[21.78,-7.865],[21.842,-7.421],[21.692,-7.109],[21.547,-6.964],[21.206,-6.692],[20.939,-6.535],[20.783,-6.366],[20.58,-5.993],[20.579,-5.943],[20.638,-5.876],[20.835,-5.712],[21.038,-5.339],[21.075,-5.102],[21.055,-4.8],[20.966,-4.611],[20.808,-4.537],[20.522,-4.309],[20.403,-4.3],[20.323,-4.39],[20.285,-4.39],[19.742,-4.081],[19.41,-3.959],[18.74,-3.626],[18.51,-3.599],[18.292,-3.457],[18.13,-3.412],[17.796,-3.391],[17.735,-3.34],[17.427,-3.234],[17.06,-3.059],[16.745,-3.086],[16.364,-3.073],[16.281,-3.097],[16.191,-3.194]]}},{"type":"Feature","properties":{"nom":"Kibali","rang":3},"geometry":{"type":"LineString","coordinates":[[30.371,2.333],[30.439,2.663],[30.363,2.825],[30.278,2.878],[30.159,2.876],[29.68,3.081],[29.571,3.094],[29.509,3.15],[29.495,3.249],[29.44,3.3],[29.347,3.303],[29.245,3.381],[29.135,3.535],[29.033,3.598],[28.814,3.564],[28.586,3.596]]}},{"type":"Feature","properties":{"nom":"Koukourou","rang":6},"geometry":{"type":"LineString","coordinates":[[20.935,7.343],[20.829,7.26],[20.713,7.239],[20.597,7.105],[20.487,7.046],[20.304,7.034],[19.982,7.203],[19.733,7.538]]}},{"type":"Feature","properties":{"nom":"Kwango","rang":6},"geometry":{"type":"LineString","coordinates":[[18.797,-11.256],[18.707,-10.879],[18.632,-10.731],[18.622,-10.657],[18.652,-10.609],[18.48,-10.363],[18.495,-10.232],[18.65,-10.072],[18.677,-9.997],[18.648,-9.805],[18.611,-9.74],[18.455,-9.63],[18.361,-9.522],[18.189,-9.254],[18.056,-9.191],[18.014,-8.875],[17.938,-8.715],[17.708,-8.414],[17.613,-8.363],[17.559,-8.272],[17.536,-8.076],[17.155,-7.461],[16.985,-7.257],[16.952,-7.157],[16.966,-7.062],[16.919,-6.934],[16.743,-6.618],[16.697,-6.164],[16.602,-6.04],[16.515,-5.391],[16.536,-4.841],[16.508,-4.46],[16.536,-4.315],[16.513,-4.245],[16.921,-4.011],[17.086,-4.003],[17.183,-3.92],[17.286,-3.742],[17.322,-3.61],[17.291,-3.525],[17.298,-3.454],[17.365,-3.369],[17.355,-3.2]]}},{"type":"Feature","properties":{"nom":"Limpopo","rang":6},"geometry":{"type":"LineString","coordinates":[[26.962,-23.737],[27.146,-23.524],[27.399,-23.384],[27.499,-23.368],[27.644,-23.218],[27.758,-23.197],[27.769,-23.149],[27.931,-23.034],[27.935,-22.987],[28.028,-22.874],[28.21,-22.694],[28.382,-22.593],[28.84,-22.481],[28.946,-22.395],[29.014,-22.278],[29.13,-22.213],[29.663,-22.146],[29.902,-22.184],[30.19,-22.291],[30.46,-22.329],[30.916,-22.291],[31.073,-22.308],[31.63,-22.506],[31.749,-22.6],[32.119,-23.036],[32.188,-23.076],[32.396,-23.424],[32.673,-24.14],[32.825,-24.297],[32.871,-24.404],[33.108,-24.572],[33.264,-24.624],[33.329,-24.699],[33.431,-24.751],[33.485,-24.772],[33.568,-24.751],[33.631,-24.949],[33.614,-25.041],[33.515,-25.142],[33.53,-25.189]]}},{"type":"Feature","properties":{"nom":"Lom","rang":6},"geometry":{"type":"LineString","coordinates":[[14.665,6.698],[14.705,6.661],[14.687,6.585],[14.596,6.393],[14.471,6.302],[14.431,6.222],[14.386,5.977],[14.201,5.89],[14.13,5.814],[14.067,5.64],[14.029,5.637],[13.91,5.522],[13.866,5.528],[13.858,5.435],[13.801,5.372],[13.595,5.299],[13.466,5.381],[13.423,5.362],[13.378,5.307],[13.359,5.056],[13.233,4.938],[13.126,4.933]]}},{"type":"Feature","properties":{"nom":"Lualaba","rang":2},"geometry":{"type":"LineString","coordinates":[[26.249,-11.743],[26.166,-11.672],[26.03,-11.68],[25.886,-11.623],[25.782,-11.417],[25.602,-11.247],[25.552,-11.114],[25.566,-11.054],[25.684,-10.969],[25.726,-10.878],[25.735,-10.731],[25.696,-10.607],[25.61,-10.507],[25.541,-10.467],[25.449,-10.485],[25.417,-10.462],[25.44,-10.23],[25.413,-10.137],[25.441,-10.036],[25.525,-9.926],[25.547,-9.811],[25.489,-9.587],[25.561,-9.266],[25.611,-9.229],[25.67,-9.278],[25.729,-9.276],[25.786,-9.221],[25.901,-9.204],[25.966,-9.137],[26.037,-8.996],[26.058,-8.881],[26.031,-8.792],[26.086,-8.705],[26.223,-8.621],[26.284,-8.544],[26.268,-8.474],[26.341,-8.313],[26.441,-8.272]]}},{"type":"Feature","properties":{"nom":"Lualaba","rang":2},"geometry":{"type":"MultiLineString","coordinates":[[[26.93,-5.61],[27.014,-5.286],[26.879,-4.731],[26.199,-4.25],[26.065,-4.11],[26.012,-3.958],[26.04,-3.796],[26.012,-3.649],[25.93,-3.519],[25.904,-3.363],[25.946,-2.89],[25.927,-2.804],[25.876,-2.745]],[[25.876,-2.752],[25.788,-2.457],[25.785,-2.113],[25.837,-1.623],[25.818,-1.286],[25.682,-1.012],[25.534,-0.816],[25.423,-0.545],[25.554,-0.036],[25.489,0.235],[25.409,0.346],[25.255,0.459],[24.791,0.577],[24.472,0.753],[24.292,0.782]]]}},{"type":"Feature","properties":{"nom":"Mananantanana","rang":6},"geometry":{"type":"LineString","coordinates":[[47.167,-22.011],[47.164,-21.973],[46.905,-21.852],[46.879,-21.786],[46.73,-21.736],[46.675,-21.653],[46.665,-21.543],[46.493,-21.38],[46.345,-21.302],[46.186,-21.275],[46.016,-21.301],[45.76,-21.444],[45.653,-21.428]]}},{"type":"Feature","properties":{"nom":"Mangoky","rang":6},"geometry":{"type":"LineString","coordinates":[[45.653,-21.428],[45.514,-21.44],[45.425,-21.501],[45.293,-21.672],[44.806,-21.724],[44.302,-21.845],[44.166,-21.829],[43.986,-21.89],[43.874,-21.838],[43.785,-21.637],[43.542,-21.316]]}},{"type":"Feature","properties":{"nom":"Mouhoun","rang":5},"geometry":{"type":"LineString","coordinates":[[-5.263,11.139],[-5.185,11.124],[-4.99,11.264],[-4.879,11.282],[-4.715,11.406],[-4.639,11.432],[-4.596,11.402],[-4.539,11.413],[-4.277,11.533],[-4.124,11.697],[-3.922,11.998],[-3.784,12.296],[-3.666,12.401],[-3.607,12.402],[-3.511,12.715],[-3.45,12.738],[-3.336,12.645],[-3.278,12.666],[-3.208,12.5],[-3.126,12.44],[-2.849,12.339],[-2.864,12.235],[-2.816,12.151],[-2.824,12.098],[-2.886,12.075],[-2.854,11.861],[-2.901,11.819],[-2.883,11.779],[-2.802,11.743],[-2.79,11.606],[-2.858,11.242],[-2.817,11.226],[-2.804,11.165],[-2.915,10.592],[-2.837,10.455],[-2.791,10.432],[-2.82,10.323],[-2.767,10.238],[-2.788,10.193],[-2.75,9.797],[-2.781,9.746],[-2.706,9.534],[-2.702,9.302],[-2.674,9.283],[-2.747,9.045],[-2.69,9.025],[-2.625,8.84],[-2.364,8.514],[-2.247,8.274],[-2.087,8.16],[-2.0,8.166],[-1.892,8.237],[-1.768,8.26],[-1.797,8.328],[-1.887,8.357],[-1.899,8.47],[-1.871,8.572],[-1.821,8.625],[-1.713,8.631]]}},{"type":"Feature","properties":{"nom":"Nakanbé","rang":6},"geometry":{"type":"LineString","coordinates":[[-2.083,14.01],[-2.055,13.681],[-2.108,13.566],[-2.069,13.253],[-2.135,13.068],[-2.105,13.042],[-1.787,13.055],[-1.628,13.032],[-1.511,12.966],[-1.262,12.962],[-1.216,12.921],[-1.141,12.651],[-1.096,12.658],[-1.083,12.624],[-1.092,12.333],[-1.045,12.153],[-0.858,11.867],[-0.798,11.829],[-0.778,11.64],[-0.724,11.557],[-0.534,11.454],[-0.499,11.405],[-0.512,11.35],[-0.406,11.194],[-0.373,11.081],[-0.384,10.954],[-0.336,10.638],[-0.608,10.546],[-0.7,10.546],[-0.703,10.608],[-0.765,10.642],[-0.88,10.526],[-1.054,10.497],[-1.067,10.367],[-1.018,10.253],[-1.07,10.117],[-1.0,9.961],[-0.977,9.777],[-1.021,9.696],[-1.13,9.715],[-1.237,9.686],[-1.342,9.608],[-1.385,9.523],[-1.366,9.431],[-1.242,9.254],[-1.223,9.158],[-1.152,9.117]]}},{"type":"Feature","properties":{"nom":"Niger","rang":3},"geometry":{"type":"MultiLineString","coordinates":[[[6.266,4.991],[6.131,4.844],[6.078,4.71],[6.055,4.42],[6.077,4.291]],[[6.266,4.991],[6.271,4.432]],[[6.455,5.363],[6.302,5.316],[6.17,5.164],[6.09,5.124],[5.738,5.191],[5.476,5.154]],[[6.455,5.363],[6.33,5.221],[6.354,5.153],[6.266,5.095],[6.266,4.991]],[[6.557,5.542],[6.606,5.386],[6.587,5.301],[6.522,5.235],[6.443,5.065],[6.461,5.003],[6.573,4.908],[6.709,4.607],[6.715,4.342]],[[-10.732,9.09],[-10.622,9.235],[-10.58,9.355],[-10.583,9.453],[-10.656,9.566],[-10.642,9.75],[-10.816,10.248],[-10.796,10.294],[-10.668,10.331],[-10.634,10.359],[-10.644,10.403],[-10.481,10.452],[-10.433,10.503],[-10.271,10.513],[-10.174,10.472],[-9.97,10.608],[-9.901,10.602],[-9.801,10.662],[-9.658,10.678],[-9.535,10.781],[-9.433,10.969],[-9.343,11.065],[-9.199,11.097],[-9.136,11.154],[-9.117,11.239],[-9.14,11.352],[-9.089,11.419],[-8.962,11.438],[-8.852,11.505],[-8.433,11.905],[-8.281,12.144],[-8.175,12.243],[-8.098,12.375],[-8.051,12.539],[-7.964,12.627],[-7.837,12.636],[-7.666,12.747],[-7.279,13.104],[-6.949,13.325],[-6.367,13.409],[-6.237,13.484],[-6.094,13.672],[-6.021,13.71],[-5.785,13.745],[-5.595,13.887],[-5.435,13.962],[-5.214,14.008],[-5.164,14.079],[-4.996,14.155],[-4.414,14.313],[-4.201,14.551],[-4.117,14.772],[-3.948,14.964],[-3.921,15.073],[-3.979,15.281],[-3.82,15.395],[-3.818,15.432],[-3.927,15.467],[-3.923,15.504],[-3.787,15.62],[-3.861,15.642],[-3.748,15.684],[-3.682,15.872],[-3.503,16.047]],[[4.626,9.865],[4.644,9.755],[4.586,9.473],[4.612,9.374],[4.75,9.243],[4.764,9.18],[4.83,9.161],[4.947,9.185],[5.057,9.15],[5.159,9.055],[5.604,8.883],[5.802,8.742],[6.02,8.754],[6.291,8.71],[6.385,8.628],[6.438,8.497],[6.716,8.144],[6.771,8.006],[6.776,7.793],[6.664,6.973],[6.66,6.743],[6.741,6.202],[6.707,5.978],[6.556,5.541],[6.455,5.363]],[[-4.304,15.507],[-4.338,15.621],[-4.185,15.865],[-4.138,15.892],[-4.066,15.873],[-3.961,15.925],[-3.824,16.047],[-3.689,16.113],[-3.467,16.161]],[[-3.503,16.047],[-3.467,16.161]],[[-3.467,16.161],[-3.424,16.226],[-3.333,16.266],[-3.31,16.337],[-3.222,16.408]],[[-3.222,16.408],[-3.189,16.3],[-3.206,16.225],[-3.271,16.199],[-3.329,16.101],[-3.503,16.047]],[[-3.222,16.408],[-3.106,16.511],[-3.08,16.606],[-3.028,16.65],[-2.948,16.643],[-2.197,16.837],[-2.043,16.835],[-1.897,16.915],[-1.448,17.035],[-1.118,17.048],[-1.052,17.009],[-0.77,16.993],[-0.705,16.95],[-0.457,16.955],[-0.346,16.873],[-0.269,16.691],[-0.089,16.426],[0.003,16.17],[0.144,15.983],[0.397,15.775],[0.471,15.679],[0.481,15.585],[0.548,15.51],[0.739,15.41],[0.657,15.046],[0.675,14.988],[0.799,14.926],[0.855,14.861],[0.891,14.751],[1.076,14.498],[1.362,14.28],[1.463,14.146],[1.581,13.847],[1.671,13.747],[2.125,13.476],[2.31,13.299],[2.355,13.176],[2.37,12.976],[2.415,12.818],[2.521,12.627],[2.515,12.552],[2.718,12.519],[2.768,12.432],[2.844,12.399],[3.15,12.118],[3.299,11.927],[3.45,11.852],[3.595,11.696],[3.695,11.62],[4.022,11.484],[4.241,11.261],[4.62,11.045],[4.688,10.957],[4.705,10.837],[4.656,10.607]]]}},{"type":"Feature","properties":{"nom":"Nile","rang":1},"geometry":{"type":"MultiLineString","coordinates":[[[32.49,15.635],[32.535,16.04],[32.629,16.256],[32.785,16.418],[32.929,16.508],[33.165,16.566],[33.359,16.686],[33.519,16.738],[33.635,16.825],[33.706,16.944],[33.74,17.246],[33.925,17.55],[33.969,17.792],[33.942,18.107],[33.9,18.278],[33.718,18.455],[33.675,18.662],[33.645,18.724],[33.59,18.741],[33.539,19.173],[33.413,19.308],[33.38,19.423],[33.138,19.503],[33.018,19.511],[32.938,19.474],[32.62,19.161],[32.546,19.152],[32.306,18.89],[32.23,18.891],[32.076,18.812],[32.005,18.606],[31.921,18.58],[31.642,18.223],[31.474,18.077],[31.296,18.015],[31.146,18.002],[30.809,18.154],[30.744,18.257],[30.674,18.499],[30.616,18.562],[30.511,18.794],[30.458,19.471],[30.35,19.786],[30.37,19.857],[30.575,19.967],[30.591,20.214],[30.539,20.329],[30.422,20.358],[30.366,20.417],[30.317,20.616],[30.37,20.774],[30.576,20.9],[30.595,20.985],[30.709,21.121],[30.699,21.177],[30.97,21.399],[30.994,21.493],[31.091,21.609]],[[32.879,23.988],[32.921,24.77],[32.871,25.037],[32.629,25.239],[32.54,25.35],[32.493,25.565],[32.704,25.754],[32.764,25.879],[32.734,26.129],[32.678,26.163],[32.362,26.067],[32.229,26.077],[32.154,26.171],[32.015,26.2],[31.966,26.297],[31.82,26.445],[31.812,26.509],[31.706,26.564],[31.695,26.632],[31.553,26.762],[31.341,27.057],[30.969,27.356],[30.868,27.5],[30.889,27.619],[30.863,27.985],[30.744,28.165],[30.74,28.23],[30.811,28.401],[30.899,28.791],[31.219,29.282],[31.287,29.783],[31.238,30.121]]]}},{"type":"Feature","properties":{"nom":"Okavango","rang":6},"geometry":{"type":"MultiLineString","coordinates":[[[24.739,-21.265],[24.69,-21.185],[24.444,-21.036],[24.367,-20.944],[24.367,-20.84],[24.484,-20.406],[24.403,-20.393],[24.212,-20.248],[24.098,-20.228],[23.981,-20.287],[23.881,-20.282],[23.698,-20.16],[23.37,-20.103],[23.545,-19.886],[23.595,-19.735],[23.579,-19.683]],[[23.354,-19.556],[23.579,-19.683]],[[23.528,-19.522],[23.579,-19.683]],[[23.237,-19.338],[23.354,-19.556]],[[23.237,-19.338],[23.438,-19.441],[23.526,-19.521]],[[22.527,-18.942],[22.542,-19.072],[22.771,-19.368],[22.892,-19.473],[23.124,-19.545],[23.354,-19.556]],[[22.527,-18.942],[22.58,-19.04],[22.663,-19.082],[22.774,-19.068],[23.023,-19.111],[23.129,-19.19],[23.237,-19.338]],[[21.503,-18.06],[21.637,-18.097],[21.937,-18.417],[22.0,-18.422],[22.317,-18.822],[22.527,-18.942]]]}},{"type":"Feature","properties":{"nom":"Omo","rang":6},"geometry":{"type":"LineString","coordinates":[[37.032,9.151],[37.031,9.052],[37.184,8.907],[37.204,8.838],[37.157,8.741],[37.166,8.658],[37.41,8.364],[37.574,8.228],[37.6,8.112],[37.59,7.877],[37.377,7.286],[37.524,7.184],[37.483,7.147],[37.396,6.893],[37.35,6.877],[37.247,6.724],[37.165,6.659],[36.983,6.633],[36.954,6.681],[36.878,6.706],[36.754,6.71],[36.579,6.635],[36.355,6.481],[36.209,6.415],[36.085,6.419],[36.036,6.367],[35.955,6.172],[35.989,6.028],[35.912,5.391],[35.933,5.353],[36.066,5.365],[36.155,5.501],[36.196,5.47],[36.202,5.418],[36.171,5.285],[36.192,5.24],[36.066,5.165],[36.08,5.141],[36.043,5.084],[36.087,4.99],[35.994,4.706],[36.045,4.539]]}},{"type":"Feature","properties":{"nom":"Orange","rang":4},"geometry":{"type":"MultiLineString","coordinates":[[[25.506,-30.612],[25.344,-30.56],[25.212,-30.473],[24.978,-30.263]],[[24.731,-29.979],[24.489,-29.818],[24.358,-29.678],[24.103,-29.586],[23.984,-29.506],[23.923,-29.441],[23.92,-29.393],[23.736,-29.23],[23.628,-29.074],[23.539,-29.205],[23.376,-29.211],[23.014,-29.431],[22.981,-29.512],[22.852,-29.558],[22.863,-29.624],[22.812,-29.669],[22.638,-29.493],[22.35,-29.343],[22.266,-29.268],[22.257,-29.177],[22.122,-28.918],[22.056,-28.854],[22.012,-28.867],[21.908,-28.825],[21.745,-28.544],[21.662,-28.44],[21.586,-28.408],[21.362,-28.417],[20.97,-28.714],[20.827,-28.748],[20.602,-28.747],[20.21,-28.514],[20.057,-28.453],[19.878,-28.449],[19.671,-28.504],[19.54,-28.575],[19.483,-28.662],[19.313,-28.733],[19.271,-28.778],[19.282,-28.848],[19.246,-28.902],[19.162,-28.939],[18.839,-28.869],[18.103,-28.872],[17.976,-28.811],[17.448,-28.698],[17.348,-28.501],[17.386,-28.353],[17.359,-28.269],[17.205,-28.199],[17.149,-28.082],[17.056,-28.031],[16.933,-28.07],[16.875,-28.128],[16.756,-28.452],[16.626,-28.488],[16.448,-28.618]],[[29.057,-29.082],[29.017,-29.218],[28.809,-29.359],[28.721,-29.55],[28.769,-29.643],[28.744,-29.678],[28.773,-29.802],[28.753,-29.851],[28.666,-29.91],[28.686,-29.984],[28.645,-30.018],[28.454,-30.045],[28.325,-30.001],[28.209,-30.006],[28.025,-30.049],[27.925,-30.101],[27.835,-30.25],[27.713,-30.282],[27.657,-30.374],[27.51,-30.371],[27.39,-30.326],[27.283,-30.476],[27.082,-30.522],[26.988,-30.609],[26.796,-30.678],[26.684,-30.679],[26.401,-30.565],[26.247,-30.556],[26.18,-30.509],[26.103,-30.5],[25.972,-30.545]]]}},{"type":"Feature","properties":{"nom":"Ouham","rang":6},"geometry":{"type":"LineString","coordinates":[[15.323,6.462],[15.398,6.342],[15.496,6.325],[15.908,6.49],[16.001,6.328],[16.075,6.27],[16.182,6.264],[16.276,6.302],[16.358,6.383],[16.474,6.56],[16.663,6.671],[16.709,6.662],[16.933,6.472],[17.082,6.475],[17.174,6.441],[17.509,6.52],[17.605,6.515],[17.821,6.65],[18.002,7.023],[18.062,7.062],[18.249,7.313],[18.285,7.314],[18.22,7.457],[18.145,7.49],[17.984,7.469],[17.945,7.517],[17.782,7.561],[17.749,7.611],[17.778,7.698],[17.768,7.826],[17.699,8.127],[17.709,8.224],[17.945,8.744],[17.992,9.011],[18.04,9.018],[18.164,9.126],[18.235,9.316]]}},{"type":"Feature","properties":{"nom":"Rosetta Branch","rang":1},"geometry":{"type":"LineString","coordinates":[[31.238,30.121],[31.053,30.192],[30.855,30.354],[30.747,31.011],[30.569,31.17],[30.488,31.357],[30.395,31.458]]}},{"type":"Feature","properties":{"nom":"Ruki","rang":6},"geometry":{"type":"LineString","coordinates":[[18.951,-0.219],[18.804,-0.121],[18.475,-0.031],[18.272,0.082],[18.184,0.063]]}},{"type":"Feature","properties":{"nom":"Ruvuma","rang":6},"geometry":{"type":"LineString","coordinates":[[35.599,-10.807],[35.26,-10.696],[35.204,-10.776],[35.199,-10.879],[35.451,-11.59],[35.564,-11.602],[35.705,-11.532],[35.785,-11.453],[35.911,-11.455],[36.175,-11.609],[36.191,-11.671],[36.306,-11.706],[36.519,-11.716],[36.674,-11.684],[36.873,-11.571],[36.979,-11.567],[37.218,-11.687],[37.373,-11.71],[37.542,-11.675],[37.725,-11.581],[37.829,-11.482],[37.855,-11.379],[37.92,-11.295],[38.177,-11.279],[38.315,-11.311],[38.492,-11.413],[38.795,-11.229],[38.988,-11.167],[39.171,-11.167],[39.322,-11.123],[39.439,-11.035],[39.817,-10.912],[39.989,-10.821],[40.464,-10.464]]}},{"type":"Feature","properties":{"nom":"Sanaga","rang":6},"geometry":{"type":"LineString","coordinates":[[13.126,4.933],[12.901,4.993],[12.631,4.936],[12.463,4.782],[12.385,4.733],[12.28,4.725],[12.131,4.575],[12.058,4.544],[12.012,4.583],[11.907,4.542],[11.742,4.423],[11.596,4.399],[11.468,4.469],[11.296,4.412],[11.079,4.227],[10.859,4.108],[10.502,4.047],[10.459,4.088],[10.235,3.859],[10.186,3.865],[9.938,3.643],[9.766,3.624]]}},{"type":"Feature","properties":{"nom":"Sangha","rang":6},"geometry":{"type":"LineString","coordinates":[[16.098,1.654],[16.15,1.487],[16.212,1.426],[16.281,1.419],[16.357,1.366],[16.554,1.184],[16.73,0.524],[17.036,0.394],[17.074,0.362],[17.103,0.256],[17.18,0.211],[17.146,-0.346],[17.17,-0.471],[17.207,-0.485],[17.229,-0.556],[17.228,-0.744],[17.181,-0.773],[17.103,-0.92],[16.913,-1.102],[16.849,-1.272]]}},{"type":"Feature","properties":{"nom":"Sassandra","rang":6},"geometry":{"type":"MultiLineString","coordinates":[[[-7.008,6.264],[-6.701,5.973],[-6.733,5.902],[-6.708,5.845],[-6.637,5.797],[-6.481,5.538],[-6.274,5.32],[-6.171,5.03],[-6.062,4.953]],[[-7.236,8.945],[-7.201,8.828],[-7.201,8.549],[-7.103,8.172],[-7.064,7.643],[-6.989,7.553],[-7.066,7.386],[-7.042,7.042]],[[-7.167,9.714],[-7.23,9.511],[-7.204,9.193],[-7.255,9.04],[-7.236,8.952]]]}},{"type":"Feature","properties":{"nom":"Semliki","rang":6},"geometry":{"type":"MultiLineString","coordinates":[[[29.838,-1.2],[29.782,-1.141],[29.476,-1.22],[29.397,-1.158],[29.367,-1.098],[29.377,-0.952],[29.452,-0.607]],[[29.597,-0.134],[29.638,0.113],[29.614,0.234],[29.537,0.31],[29.534,0.386],[29.604,0.464],[29.705,0.671],[29.834,0.773],[30.047,0.864],[30.183,0.973],[30.24,1.103],[30.321,1.185],[30.478,1.239]]]}},{"type":"Feature","properties":{"nom":"Setit","rang":6},"geometry":{"type":"LineString","coordinates":[[37.817,13.875],[37.7,13.91],[37.629,13.97],[37.354,14.372],[37.257,14.454],[37.133,14.406],[37.025,14.272],[36.812,14.315],[36.679,14.308],[36.542,14.258],[36.22,14.279],[36.085,14.242],[35.977,14.258],[35.895,14.326],[35.865,14.425],[35.895,14.62]]}},{"type":"Feature","properties":{"nom":"Shatt al Arab","rang":3},"geometry":{"type":"LineString","coordinates":[[47.468,30.968],[47.582,30.831],[47.702,30.754],[47.785,30.561],[47.845,30.512],[48.066,30.458],[48.148,30.417],[48.226,30.321],[48.331,30.285],[48.401,30.188],[48.435,30.038],[48.547,29.962]]}},{"type":"Feature","properties":{"nom":"Shire","rang":3},"geometry":{"type":"MultiLineString","coordinates":[[[35.278,-14.758],[35.293,-14.921],[35.251,-15.057],[35.107,-15.303],[34.874,-15.445],[34.743,-15.685],[34.795,-15.991],[34.889,-16.13],[34.934,-16.323],[35.23,-16.639],[35.281,-16.808],[35.291,-17.705]],[[35.257,-14.504],[35.236,-14.401]]]}},{"type":"Feature","properties":{"nom":"Suez Canal","rang":6},"geometry":{"type":"MultiLineString","coordinates":[[[32.561,30.182],[32.566,29.974]],[[32.36,30.424],[32.303,30.593],[32.334,30.689],[32.324,31.256]]]}},{"type":"Feature","properties":{"nom":"Sénégal","rang":4},"geometry":{"type":"LineString","coordinates":[[-10.892,13.778],[-11.011,13.856],[-11.129,14.045],[-11.246,14.105],[-11.253,14.267],[-11.371,14.418],[-11.618,14.557],[-11.936,14.647],[-12.409,14.889],[-12.46,14.975],[-12.735,15.131],[-12.859,15.243],[-12.863,15.34],[-12.931,15.453],[-12.994,15.505],[-13.079,15.51],[-13.142,15.603],[-13.206,15.617],[-13.348,15.973],[-13.41,16.059],[-13.507,16.135],[-13.685,16.127],[-13.757,16.173],[-13.81,16.138],[-13.868,16.148],[-13.968,16.257],[-13.975,16.311],[-14.3,16.58],[-14.534,16.656],[-14.787,16.646],[-14.96,16.679],[-15.055,16.641],[-15.091,16.657],[-15.121,16.604],[-15.38,16.582],[-15.768,16.485],[-15.959,16.492],[-16.168,16.547],[-16.239,16.531],[-16.404,16.225],[-16.441,16.205],[-16.535,15.838]]}},{"type":"Feature","properties":{"nom":"Tigris","rang":4},"geometry":{"type":"LineString","coordinates":[[42.377,37.062],[42.509,36.941],[42.513,36.876],[42.559,36.832],[42.713,36.785],[42.761,36.719],[42.895,36.691],[42.901,36.662],[42.811,36.609],[42.771,36.54],[42.844,36.478],[43.031,36.425],[43.169,36.334],[43.258,36.205],[43.346,35.946],[43.343,35.858],[43.297,35.765],[43.312,35.718],[43.261,35.657],[43.262,35.47],[43.568,35.006],[43.538,34.957],[43.785,34.453],[43.854,34.194],[43.96,34.098],[44.232,34.05],[44.403,33.974],[44.427,33.909],[44.398,33.769],[44.417,33.739],[44.31,33.531],[44.397,33.293],[44.431,33.291],[44.544,33.127],[44.675,33.024],[44.871,32.925],[45.027,32.891],[45.08,32.803],[45.225,32.778],[45.298,32.663],[45.384,32.604],[45.809,32.502],[46.03,32.619],[46.137,32.632],[46.201,32.588],[46.692,32.443],[46.735,32.321],[46.713,32.149],[46.827,32.079],[46.94,31.917],[47.139,31.826],[47.146,31.749],[47.221,31.627],[47.363,31.459],[47.434,31.286],[47.441,30.999]]}},{"type":"Feature","properties":{"nom":"Tshuapa","rang":6},"geometry":{"type":"LineString","coordinates":[[24.594,-3.177],[24.617,-2.995],[24.583,-2.902],[24.44,-2.769],[24.388,-2.656],[24.369,-2.477],[24.088,-2.092],[23.971,-1.828],[23.92,-1.519],[23.848,-1.402],[23.708,-1.331],[23.669,-1.273],[23.166,-1.146],[22.96,-1.064],[22.871,-0.965],[22.458,-0.802],[22.375,-0.706],[22.273,-0.651],[21.785,-0.486],[21.624,-0.389],[21.535,-0.384],[21.303,-0.295],[21.029,-0.261],[20.936,-0.191],[20.821,-0.222],[20.754,-0.282]]}},{"type":"Feature","properties":{"nom":"Ubangi","rang":3},"geometry":{"type":"LineString","coordinates":[[18.597,3.679],[18.622,3.304],[18.491,2.924],[18.212,2.415],[18.072,2.013],[18.058,1.535],[17.902,1.118],[17.886,0.857],[17.925,0.537],[17.888,0.234],[17.773,-0.052],[17.724,-0.278],[17.753,-0.549]]}},{"type":"Feature","properties":{"nom":"Uele","rang":3},"geometry":{"type":"LineString","coordinates":[[28.586,3.596],[28.43,3.647],[28.29,3.622],[28.141,3.729],[28.08,3.74],[27.835,3.67],[27.56,3.643],[27.431,3.696],[27.228,3.851],[27.185,3.84],[27.18,3.698],[27.089,3.544],[27.04,3.517],[26.879,3.515],[26.833,3.584],[26.785,3.864],[26.697,4.002],[26.656,4.012],[26.235,3.68],[25.916,3.705],[25.816,3.569],[25.762,3.543],[25.619,3.576],[25.428,3.524],[25.313,3.531],[25.031,3.402],[24.949,3.462],[24.649,3.477],[24.461,3.533],[24.276,3.651],[24.081,3.709],[23.877,3.708],[23.733,3.745],[23.651,3.818],[23.545,3.845],[23.415,3.824],[23.049,3.885],[22.85,3.851],[22.668,3.909],[22.422,4.135],[21.687,4.281],[21.538,4.245],[21.35,4.311],[21.23,4.302],[21.126,4.332],[20.956,4.413],[20.558,4.463],[20.394,4.686],[20.226,4.83],[19.807,5.089],[19.501,5.127],[19.323,5.071],[19.069,4.891],[18.832,4.523],[18.7,4.383],[18.594,4.346],[18.567,4.258],[18.62,4.117],[18.634,3.954],[18.597,3.679]]}},{"type":"Feature","properties":{"nom":"Vaal","rang":4},"geometry":{"type":"MultiLineString","coordinates":[[[25.622,-27.668],[25.366,-27.758],[24.99,-28.07],[24.864,-28.093],[24.774,-28.149],[24.719,-28.238],[24.676,-28.496],[24.631,-28.503],[24.582,-28.581],[24.424,-28.556],[24.359,-28.463],[24.297,-28.432],[24.216,-28.473],[24.04,-28.723],[23.992,-28.882],[23.883,-28.989],[23.628,-29.073]],[[28.124,-26.867],[28.0,-26.717],[27.909,-26.694],[27.81,-26.75],[27.557,-26.772],[27.506,-26.84],[27.276,-26.887],[27.212,-26.936],[26.943,-26.89],[26.921,-26.933],[26.825,-26.935],[26.698,-26.99],[26.507,-27.115],[26.45,-27.177],[26.466,-27.362],[26.228,-27.46],[26.091,-27.603]],[[30.135,-26.383],[30.21,-26.479],[30.188,-26.56],[30.049,-26.709],[29.839,-26.811],[29.473,-26.867],[29.461,-26.909],[29.269,-26.933],[29.104,-27.042],[28.992,-27.007],[28.78,-27.018],[28.665,-26.976],[28.627,-27.019],[28.531,-27.043],[28.496,-26.99]]]}},{"type":"Feature","properties":{"nom":"Victoria Nile","rang":1},"geometry":{"type":"MultiLineString","coordinates":[[[32.893,1.311],[33.085,0.589],[33.187,0.428]],[[32.475,1.552],[32.545,1.522]],[[31.366,2.193],[31.751,2.324],[31.948,2.333],[32.087,2.265],[32.247,2.245],[32.333,2.1],[32.344,1.914],[32.282,1.83],[32.104,1.699],[32.104,1.665],[32.138,1.652],[32.241,1.666]]]}},{"type":"Feature","properties":{"nom":"Volta","rang":5},"geometry":{"type":"LineString","coordinates":[[0.103,6.338],[0.099,6.188],[0.157,6.114],[0.544,6.021],[0.639,5.897],[0.672,5.76]]}},{"type":"Feature","properties":{"nom":"Zambezi","rang":3},"geometry":{"type":"MultiLineString","coordinates":[[[36.039,-18.337],[36.14,-18.536],[36.12,-18.677],[36.153,-18.795],[36.125,-18.842]],[[36.039,-18.337],[36.498,-18.576]],[[28.761,-16.532],[28.833,-16.424],[28.876,-16.036],[29.051,-15.901],[29.288,-15.777],[29.73,-15.645],[30.796,-15.642]],[[32.707,-15.58],[32.925,-15.586],[33.028,-15.634],[33.089,-15.725],[33.564,-16.147],[33.984,-16.599],[34.795,-16.923],[34.897,-17.059],[35.096,-17.521],[35.187,-17.636],[35.389,-17.8],[35.48,-17.92],[35.846,-18.146],[35.941,-18.275],[36.039,-18.337]],[[24.266,-11.379],[24.327,-11.311],[24.308,-11.141],[24.226,-11.101],[24.022,-11.126],[23.75,-11.332],[23.477,-11.467],[23.173,-11.686],[22.915,-11.823],[22.76,-11.952],[22.707,-12.074],[22.588,-12.227],[22.553,-12.346],[22.544,-12.522],[22.581,-12.69],[22.698,-12.965],[22.687,-13.038],[22.753,-13.132],[23.023,-13.355],[23.137,-13.63],[23.221,-13.747],[23.225,-14.066],[23.195,-14.216],[23.218,-14.324],[23.034,-14.784],[22.969,-15.077],[22.982,-15.278],[23.125,-15.482],[23.127,-15.625],[23.099,-15.666],[23.246,-16.013],[23.292,-16.264],[23.492,-16.549],[23.846,-16.868],[24.077,-17.14],[24.238,-17.478],[24.932,-17.543],[25.092,-17.634],[25.259,-17.794],[25.452,-17.845],[25.64,-17.824],[25.742,-17.858],[25.863,-17.952],[25.996,-17.97],[26.14,-17.912],[26.333,-17.929],[26.578,-18.023],[26.78,-18.042],[27.021,-17.958]]]}}]}